OBJECT_NAME,OBJECT_ID,EPOCH,MEAN_MOTION,ECCENTRICITY,INCLINATION,RA_OF_ASC_NODE,ARG_OF_PERICENTER,MEAN_ANOMALY,EPHEMERIS_TYPE,CLASSIFICATION_TYPE,NORAD_CAT_ID,ELEMENT_SET_NO,REV_AT_EPOCH,BSTAR,MEAN_MOTION_DOT,MEAN_MOTION_DDOT
STARLINK-32039,2024-150X,2026-07-22T13:42:34.915680,15.30200359,.00014295,53.1617,43.2657,93.2036,266.9128,0,U,60604,999,10865,.60951016E-4,.1446E-4,0
STARLINK-11247 [DTC],2024-152A,2026-07-22T07:19:12.585792,15.69713798,.00011583,53.1595,172.9680,88.0839,272.0312,0,U,60720,999,10997,-.4952077E-5,-.1189E-4,0
STARLINK-11259 [DTC],2024-152B,2026-07-22T22:28:58.864224,15.69707246,.00008239,53.1569,169.7963,73.2600,286.8509,0,U,60721,999,11007,-.34541963E-4,-.477E-4,0
STARLINK-11188 [DTC],2024-152C,2026-07-22T22:21:55.726272,15.69701861,.00009748,53.1609,169.7631,107.4973,252.6152,0,U,60722,999,11019,-.735663E-6,-.677E-5,0
STARLINK-11272 [DTC],2024-152D,2026-07-22T22:07:47.632512,15.69704582,.00011449,53.1595,169.7018,76.2186,283.8959,0,U,60723,999,11007,.26354709E-4,.2604E-4,0
STARLINK-11261 [DTC],2024-152E,2026-07-22T14:36:26.642880,15.69707080,.00012465,53.1594,171.3009,71.6520,288.4633,0,U,60724,999,11002,.613477E-6,-.514E-5,0
STARLINK-11263 [DTC],2024-152F,2026-07-22T05:12:13.019040,15.69710058,.00013588,53.1577,173.1192,104.8760,255.2409,0,U,60725,999,10996,.36013728E-4,.3776E-4,0
STARLINK-11235 [DTC],2024-152G,2026-07-22T21:53:40.668864,15.69698848,.000081,53.1577,169.6321,91.8582,268.2529,0,U,60726,999,11020,-.6696542E-5,-.1399E-4,0
STARLINK-11080 [DTC],2024-152H,2026-07-22T21:46:36.604704,15.69703062,.00012252,53.1605,169.6018,95.7944,264.3214,0,U,60727,999,11020,-.2361309E-5,-.875E-5,0
STARLINK-11249 [DTC],2024-152J,2026-07-22T21:39:32.570784,15.69706073,.00013378,53.1583,169.5684,77.2625,282.8542,0,U,60728,999,11007,.1056225E-5,-.461E-5,0
STARLINK-11146 [DTC],2024-152K,2026-07-22T21:32:28.727808,15.69703967,.00011525,53.1594,169.5247,75.8377,284.2769,0,U,60729,999,11020,.2578737E-5,-.276E-5,0
STARLINK-11255 [DTC],2024-152L,2026-07-22T04:36:53.319456,15.69709802,.00011821,53.1597,172.9573,82.7371,277.3781,0,U,60730,999,10997,.8834337E-5,.482E-5,0
STARLINK-11254 [DTC],2024-152M,2026-07-22T04:29:49.320096,15.69704671,.00011128,53.1606,172.9221,97.4577,262.6567,0,U,60731,999,10997,.11559944E-4,.812E-5,0
STARLINK-11266 [DTC],2024-152N,2026-07-22T04:22:45.001056,15.69717493,.00008506,53.1600,172.8785,79.0376,281.0737,0,U,60732,999,10996,.13261696E-4,.1019E-4,0
STARLINK-32253,2024-152P,2026-07-22T19:28:44.046624,15.34398219,.00013451,53.1617,0.4353,81.5485,278.5670,0,U,60733,999,10749,.5815612E-4,.1589E-4,0
STARLINK-32179,2024-152Q,2026-07-22T20:53:26.344320,15.34410627,.00014168,53.1604,0.1034,112.9855,247.1297,0,U,60734,999,10742,.15001327E-3,.4697E-4,0
STARLINK-32289,2024-152T,2026-07-22T10:15:03.400416,15.34396616,.00020053,53.1613,2.3154,103.2715,256.8511,0,U,60737,999,10748,.85161489E-4,.2501E-4,0
STARLINK-32304,2024-152U,2026-07-22T10:33:13.784832,15.34339788,.0001461,53.1578,2.3896,86.5087,273.6083,0,U,60738,999,10748,.31567804E-3,.10284E-3,0
STARLINK-32235,2024-152V,2026-07-22T18:31:17.808960,15.34396157,.00009454,53.1623,0.9091,55.3922,304.7170,0,U,60739,999,10748,.30961973E-4,.67E-5,0
STARLINK-32315,2024-152W,2026-07-22T20:08:07.427904,15.34404546,.00010146,53.1615,0.6115,91.4997,268.6122,0,U,60740,999,10741,.99481809E-4,.2987E-4,0
STARLINK-11242 [DTC],2024-154A,2026-07-22T06:13:50.304864,15.69727494,.00010559,53.1597,187.6273,83.3311,276.7827,0,U,60903,999,10965,.12745937E-4,.957E-5,0
STARLINK-11256 [DTC],2024-154B,2026-07-22T04:35:06.675936,15.69710073,.00010927,53.1597,187.9093,85.2425,274.8718,0,U,60904,999,10964,.6724777E-5,.226E-5,0
STARLINK-11159 [DTC],2024-154C,2026-07-22T22:41:21.411744,15.69689348,.00009628,53.1582,184.8094,111.6673,248.4447,0,U,60905,999,10975,-.22913905E-4,-.3361E-4,0
STARLINK-11264 [DTC],2024-154D,2026-07-22T05:45:44.713440,15.69713960,.00013624,53.1598,188.2274,122.6276,237.4874,0,U,60906,999,10964,.17993053E-4,.1592E-4,0
STARLINK-11226 [DTC],2024-154E,2026-07-22T22:27:13.266144,15.69705434,.00011425,53.1580,184.7481,81.6505,278.4643,0,U,60907,999,10975,-.10546766E-4,-.1866E-4,0
STARLINK-11229 [DTC],2024-154F,2026-07-22T22:20:09.559680,15.69700912,.00009855,53.1594,184.7136,91.4248,268.6882,0,U,60908,999,10975,-.5384505E-5,-.124E-4,0
STARLINK-11265 [DTC],2024-154G,2026-07-22T22:48:24.782976,15.69698874,.00008534,53.1584,184.8418,91.0600,269.0516,0,U,60909,999,10975,-.1938649E-5,-.823E-5,0
STARLINK-11250 [DTC],2024-154H,2026-07-22T22:13:05.640672,15.69701812,.00010677,53.1602,184.6804,93.5185,266.5955,0,U,60910,999,10975,-.13539544E-4,-.2228E-4,0
STARLINK-11190 [DTC],2024-154J,2026-07-22T05:17:29.644800,15.69711318,.00009853,53.1586,188.0988,81.9207,278.1923,0,U,60911,999,10963,.3473603E-5,-.168E-5,0
