{"epoch":1784799577,"count":18318,"objects":[{"id":"60604","name":"STARLINK-32039","type":"PAYLOAD","l1":"1 60604U 24150X   26203.57123745  .00001446  00000-0  60951-4 0  9995","l2":"2 60604  53.1617  43.2657 0001429  93.2036 266.9128 15.30200359108659"},{"id":"60720","name":"STARLINK-11247","type":"PAYLOAD","l1":"1 60720U 24152A   26203.30500678 -.00001189  00000-0 -49521-5 0  9998","l2":"2 60720  53.1595 172.9680 0001158  88.0839 272.0312 15.69713798109978"},{"id":"60721","name":"STARLINK-11259","type":"PAYLOAD","l1":"1 60721U 24152B   26203.93679241 -.00004770  00000-0 -34542-4 0  9996","l2":"2 60721  53.1569 169.7963 0000824  73.2600 286.8509 15.69707246110074"},{"id":"60722","name":"STARLINK-11188","type":"PAYLOAD","l1":"1 60722U 24152C   26203.93189498 -.00000677  00000-0 -73566-6 0  9990","l2":"2 60722  53.1609 169.7631 0000975 107.4973 252.6152 15.69701861110197"},{"id":"60723","name":"STARLINK-11272","type":"PAYLOAD","l1":"1 60723U 24152D   26203.92207908  .00002604  00000-0  26355-4 0  9999","l2":"2 60723  53.1595 169.7018 0001145  76.2186 283.8959 15.69704582110071"},{"id":"60724","name":"STARLINK-11261","type":"PAYLOAD","l1":"1 60724U 24152E   26203.60864170 -.00000514  00000-0  61348-6 0  9997","l2":"2 60724  53.1594 171.3009 0001246  71.6520 288.4633 15.69707080110024"},{"id":"60725","name":"STARLINK-11263","type":"PAYLOAD","l1":"1 60725U 24152F   26203.21681735  .00003776  00000-0  36014-4 0  9991","l2":"2 60725  53.1577 173.1192 0001359 104.8760 255.2409 15.69710058109962"},{"id":"60726","name":"STARLINK-11235","type":"PAYLOAD","l1":"1 60726U 24152G   26203.91227626 -.00001399  00000-0 -66965-5 0  9994","l2":"2 60726  53.1577 169.6321 0000810  91.8582 268.2529 15.69698848110203"},{"id":"60727","name":"STARLINK-11080","type":"PAYLOAD","l1":"1 60727U 24152H   26203.90736811 -.00000875  00000-0 -23613-5 0  9996","l2":"2 60727  53.1605 169.6018 0001225  95.7944 264.3214 15.69703062110208"},{"id":"60728","name":"STARLINK-11249","type":"PAYLOAD","l1":"1 60728U 24152J   26203.90246031 -.00000461  00000-0  10562-5 0  9996","l2":"2 60728  53.1583 169.5684 0001338  77.2625 282.8542 15.69706073110077"},{"id":"60729","name":"STARLINK-11146","type":"PAYLOAD","l1":"1 60729U 24152K   26203.89755472 -.00000276  00000-0  25787-5 0  9998","l2":"2 60729  53.1594 169.5247 0001152  75.8377 284.2769 15.69703967110208"},{"id":"60730","name":"STARLINK-11255","type":"PAYLOAD","l1":"1 60730U 24152L   26203.19228379  .00000482  00000-0  88343-5 0  9999","l2":"2 60730  53.1597 172.9573 0001182  82.7371 277.3781 15.69709802109970"},{"id":"60731","name":"STARLINK-11254","type":"PAYLOAD","l1":"1 60731U 24152M   26203.18737639  .00000812  00000-0  11560-4 0  9996","l2":"2 60731  53.1606 172.9221 0001113  97.4577 262.6567 15.69704671109975"},{"id":"60732","name":"STARLINK-11266","type":"PAYLOAD","l1":"1 60732U 24152N   26203.18246529  .00001019  00000-0  13262-4 0  9991","l2":"2 60732  53.1600 172.8785 0000851  79.0376 281.0737 15.69717493109964"},{"id":"60733","name":"STARLINK-32253","type":"PAYLOAD","l1":"1 60733U 24152P   26203.81162091  .00001589  00000-0  58156-4 0  9996","l2":"2 60733  53.1617   0.4353 0001345  81.5485 278.5670 15.34398219107494"},{"id":"60734","name":"STARLINK-32179","type":"PAYLOAD","l1":"1 60734U 24152Q   26203.87044380  .00004697  00000-0  15001-3 0  9997","l2":"2 60734  53.1604   0.1034 0001417 112.9855 247.1297 15.34410627107422"},{"id":"60737","name":"STARLINK-32289","type":"PAYLOAD","l1":"1 60737U 24152T   26203.42712269  .00002501  00000-0  85161-4 0  9996","l2":"2 60737  53.1613   2.3154 0002005 103.2715 256.8511 15.34396616107487"},{"id":"60738","name":"STARLINK-32304","type":"PAYLOAD","l1":"1 60738U 24152U   26203.43974288  .00010284  00000-0  31568-3 0  9997","l2":"2 60738  53.1578   2.3896 0001461  86.5087 273.6083 15.34339788107489"},{"id":"60739","name":"STARLINK-32235","type":"PAYLOAD","l1":"1 60739U 24152V   26203.77173390  .00000670  00000-0  30962-4 0  9996","l2":"2 60739  53.1623   0.9091 0000945  55.3922 304.7170 15.34396157107486"},{"id":"60740","name":"STARLINK-32315","type":"PAYLOAD","l1":"1 60740U 24152W   26203.83897486  .00002987  00000-0  99482-4 0  9999","l2":"2 60740  53.1615   0.6115 0001015  91.4997 268.6122 15.34404546107415"},{"id":"60903","name":"STARLINK-11242","type":"PAYLOAD","l1":"1 60903U 24154A   26203.25961001  .00000957  00000-0  12746-4 0  9996","l2":"2 60903  53.1597 187.6273 0001056  83.3311 276.7827 15.69727494109659"},{"id":"60904","name":"STARLINK-11256","type":"PAYLOAD","l1":"1 60904U 24154B   26203.19104949  .00000226  00000-0  67248-5 0  9997","l2":"2 60904  53.1597 187.9093 0001093  85.2425 274.8718 15.69710073109643"},{"id":"60905","name":"STARLINK-11159","type":"PAYLOAD","l1":"1 60905U 24154C   26203.94538671 -.00003361  00000-0 -22914-4 0  9999","l2":"2 60905  53.1582 184.8094 0000963 111.6673 248.4447 15.69689348109757"},{"id":"60906","name":"STARLINK-11264","type":"PAYLOAD","l1":"1 60906U 24154D   26203.24010085  .00001592  00000-0  17993-4 0  9990","l2":"2 60906  53.1598 188.2274 0001362 122.6276 237.4874 15.69713960109646"},{"id":"60907","name":"STARLINK-11226","type":"PAYLOAD","l1":"1 60907U 24154E   26203.93557021 -.00001866  00000-0 -10547-4 0  9997","l2":"2 60907  53.1580 184.7481 0001142  81.6505 278.4643 15.69705434109752"},{"id":"60908","name":"STARLINK-11229","type":"PAYLOAD","l1":"1 60908U 24154F   26203.93066620 -.00001240  00000-0 -53845-5 0  9993","l2":"2 60908  53.1594 184.7136 0000986  91.4248 268.6882 15.69700912109755"},{"id":"60909","name":"STARLINK-11265","type":"PAYLOAD","l1":"1 60909U 24154G   26203.95028684 -.00000823  00000-0 -19386-5 0  9992","l2":"2 60909  53.1584 184.8418 0000853  91.0600 269.0516 15.69698874109752"},{"id":"60910","name":"STARLINK-11250","type":"PAYLOAD","l1":"1 60910U 24154H   26203.92575973 -.00002228  00000-0 -13540-4 0  9995","l2":"2 60910  53.1602 184.6804 0001068  93.5185 266.5955 15.69701812109752"},{"id":"60911","name":"STARLINK-11190","type":"PAYLOAD","l1":"1 60911U 24154J   26203.22048200 -.00000168  00000-0  34736-5 0  9998","l2":"2 60911  53.1586 188.0988 0000985  81.9207 278.1923 15.69711318109631"}]}